SL-16 R/B               
1 23705U 95058B   26060.78871614 -.00000120  00000+0 -37092-4 0  9999
2 23705  71.0208 196.8413 0011060 139.7572 220.4372 14.15492777566735
SL-16 R/B               
1 24298U 96051B   26060.80908926  .00000075  00000+0  67097-4 0  9996
2 24298  70.7592 191.9176 0015793 159.5684 200.6071 14.12413245520532
ORBVIEW 2 (SEASTAR)     
1 24883U 97037A   26060.40213455  .00000375  00000+0  14659-3 0  9991
2 24883  98.8552 224.4950 0003206  88.6993 271.4559 14.35487386507288
SL-16 R/B               
1 25400U 98043G   26060.80313604  .00000075  00000+0  50509-4 0  9998
2 25400  98.8241  14.1114 0010581  42.0512 318.1478 14.26047694437869
SL-16 R/B               
1 25407U 98045B   26060.80353481 -.00000249  00000+0 -10141-3 0  9996
2 25407  71.0109 198.1568 0006295  20.3267 339.8106 14.16189940425989
ISS (ZARYA)             
1 25544U 98067A   26060.57520306  .00009927  00000+0  19202-3 0  9995
2 25544  51.6320 112.4722 0008284 146.1756 213.9762 15.48382986555076
CZ-4B R/B               
1 25732U 99025C   26060.85662164  .00000060  00000+0  49655-4 0  9994
2 25732  98.6644 105.3232 0037188   9.2250 164.4503 14.18263508387053
OKEAN-O                 
1 25860U 99039A   26060.74350940  .00000793  00000+0  11090-3 0  9999
2 25860  97.9460 120.7152 0001485  71.7340 288.4033 14.80320538433211
SL-16 R/B               
1 25861U 99039B   26060.73086505  .00000681  00000+0  93200-4 0  9992
2 25861  97.9983 119.8387 0013428 284.6887  75.2837 14.81718487435684
DELTA 2 R/B             
1 25876U 99041E   26060.79612991  .00001723  00000+0  31488-3 0  9998
2 25876  51.7655 332.8064 0502302 325.1266  31.7687 14.11807275361910
HELIOS 1B               
1 25977U 99064A   26060.70994324  .00002008  00000+0  22703-3 0  9996
2 25977  98.1705 322.7185 0002501  85.6161 274.5340 14.87658510684070
TERRA                   
1 25994U 99068A   26060.78122913  .00000526  00000+0  11626-3 0  9999
2 25994  97.9611 114.5175 0002160 171.2986 304.7594 14.61004842393929
SL-16 R/B               
1 26070U 00006B   26060.60496228  .00000282  00000+0  16729-3 0  9991
2 26070  71.0014 114.8380 0017304 201.2993 158.7411 14.15823208347416
TITAN 4B R/B            
1 26474U 00047B   26060.81161288  .00004820  00000+0  30348-3 0  9997
2 26474  67.9881  62.6619 0037872  44.8135 315.6061 15.09471733391720
ENVISAT                 
1 27386U 02009A   26060.88565547  .00000143  00000+0  60035-4 0  9994
2 27386  98.3714  14.6694 0001350  85.2599 292.4302 14.39033464258056
IDEFIX & ARIANE 42P R/B 
1 27422U 02021B   26060.73472942  .00000315  00000+0  13624-3 0  9991
2 27422  98.5862 359.4365 0011120 206.3846 153.6772 14.31019403242887
AQUA                    
1 27424U 02022A   26060.87598086  .00001185  00000+0  24640-3 0  9993
2 27424  98.4160  28.0994 0000713  53.4417 334.8110 14.61953920267595
CZ-4B R/B               
1 27432U 02024C   26060.73613693  .00000047  00000+0  46800-4 0  9990
2 27432  98.8857 114.1823 0050840  46.5747  65.6183 14.14545969228116
MIDORI II (ADEOS-II)    
1 27597U 02056A   26060.82314542  .00000327  00000+0  14655-3 0  9991
2 27597  98.7754  19.2472 0001860  54.3439 305.7915 14.29277780209176
H-2A R/B                
1 27601U 02056E   26060.82068773  .00000303  00000+0  12060-3 0  9991
2 27601  98.3188  21.4865 0070007 184.0894 233.4046 14.33754541212980
CZ-4B R/B               
1 28059U 03049C   26060.54396689  .00000504  00000+0  12731-3 0  9999
2 28059  98.6871  55.1297 0047006 256.3092 103.2868 14.55010732185413
CZ-2C R/B               
1 28222U 04012C   26060.73931489  .00058766  00000+0  63199-3 0  9993
2 28222  97.7255 125.2843 0013561 341.9053  18.1720 15.63451390203033
SL-16 R/B               
1 28353U 04021B   26060.82006439 -.00000066  00000+0 -92989-5 0  9999
2 28353  70.9991 249.0084 0003632  26.0617 334.0687 14.14599764121725
CZ-4B R/B               
1 28415U 04035C   26060.66315205  .00009774  00000+0  34555-3 0  9995
2 28415  97.3514  95.0026 0032008   0.5839 359.5433 15.28890487178685
CZ-2C R/B               
1 28480U 04046B   26060.77248067  .00000145  00000+0  69106-4 0  9996
2 28480  98.1988 336.2487 0139417 177.8033 182.3791 14.26989175107375
ARIANE 5 R/B            
1 28499U 04049H   26060.41369778  .00000941  00000+0  10998-3 0  9991
2 28499  98.2613 228.5617 0084540  18.7373 341.6920 14.85247794144560
CZ-2D R/B               
1 28738U 05024B   26060.56150889  .00045028  00000+0  57095-3 0  9992
2 28738  97.3599  75.4145 0007005  66.5213 293.6779 15.59302460138519
ALOS (DAICHI)           
1 28931U 06002A   26060.87825103  .00001671  00000+0  28843-3 0  9991
2 28931  98.1205  16.8737 0001238  51.4657 308.6660 14.69779356 72335
H-2A R/B                
1 28932U 06002B   26060.36032837  .00011351  00000+0  57137-3 0  9994
2 28932  98.2387 206.6702 0051980 269.7000  89.8274 15.16205144 93170
RESURS-DK 1             
1 29228U 06021A   26060.73267630  .00003040  00000+0  17944-3 0  9994
2 29228  69.9303 257.6072 0002546 166.2959 193.8276 15.12682430 86326
CZ-4B R/B               
1 29507U 06046C   26060.69308713  .00005349  00000+0  27228-3 0  9994
2 29507  97.5612 105.6233 0031846 296.4725  63.3242 15.16805114 58838
